CALSPHERE 1             
1 00900U 64063C   26115.90394019  .00000686  00000+0  68842-3 0  9998
2 00900  90.2215  70.5396 0028351  89.0737 332.0516 13.76560195 64231
CALSPHERE 2             
1 00902U 64063E   26115.88918015  .00000082  00000+0  11069-3 0  9994
2 00902  90.2342  74.5393 0019468  25.0680  33.4619 13.52896128849195
LCS 1                   
1 01361U 65034C   26115.86520756  .00000020  00000+0  14674-2 0  9998
2 01361  32.1440 301.2607 0013218 295.9086  64.0049  9.89310187204702
TEMPSAT 1               
1 01512U 65065E   26115.77942979  .00000022  00000+0  25516-4 0  9996
2 01512  90.0008 212.5832 0070663  37.2843  85.2262 13.33591538953069
CALSPHERE 4A            
1 01520U 65065H   26115.95215581  .00000118  00000+0  21017-3 0  9994
2 01520  89.8963 123.0087 0067722 250.4418 137.5503 13.36268202955738
OPS 5712 (P/L 160)      
1 02826U 67053A   26115.91324625  .00007318  00000+0  10467-2 0  9994
2 02826  69.9165 166.3444 0002087 241.5846 118.5092 14.76993663 58510
OPS 5712 (P/L 153)      
1 02874U 67053H   26115.70520918 -.00000002  00000+0  37063-4 0  9994
2 02874  69.9744 227.7940 0010059 265.2106  94.7852 13.96820443999451
RIGIDSPHERE 2 (LCS 4)   
1 05398U 71067E   26115.85772866  .00000669  00000+0  21136-3 0  9996
2 05398  87.6252 353.3426 0061776  47.9173 312.7256 14.37809074866369
COSMOS 2493 (SKRL-756 1)
1 39490U 13078A   26115.92254112  .00002836  00000+0  21477-3 0  9997
2 39490  82.4111 312.3167 0014396  64.3537 295.9173 15.01873845670111
COSMOS 2494 (SKRL-756 2)
1 39491U 13078B   26115.94718325  .00003397  00000+0  23979-3 0  9993
2 39491  82.4104 301.8972 0016569  26.8513 333.3567 15.04542596670957
