[{"OBJECT_NAME":"CALSPHERE 1","OBJECT_ID":"1964-063C","EPOCH":"2026-04-25T21:41:40.432416","MEAN_MOTION":13.76560195,"ECCENTRICITY":0.00283516,"INCLINATION":90.2215,"RA_OF_ASC_NODE":70.5396,"ARG_OF_PERICENTER":89.0737,"MEAN_ANOMALY":332.0516,"EPHEMERIS_TYPE":0,"CLASSIFICATION_TYPE":"U","NORAD_CAT_ID":900,"ELEMENT_SET_NO":999,"REV_AT_EPOCH":6423,"BSTAR":0.00068841689,"MEAN_MOTION_DOT":6.86e-6,"MEAN_MOTION_DDOT":0},{"OBJECT_NAME":"CALSPHERE 2","OBJECT_ID":"1964-063E","EPOCH":"2026-04-25T21:20:25.164960","MEAN_MOTION":13.52896128,"ECCENTRICITY":0.00194687,"INCLINATION":90.2342,"RA_OF_ASC_NODE":74.5393,"ARG_OF_PERICENTER":25.068,"MEAN_ANOMALY":33.4619,"EPHEMERIS_TYPE":0,"CLASSIFICATION_TYPE":"U","NORAD_CAT_ID":902,"ELEMENT_SET_NO":999,"REV_AT_EPOCH":84919,"BSTAR":0.0001106864,"MEAN_MOTION_DOT":8.2e-7,"MEAN_MOTION_DDOT":0},{"OBJECT_NAME":"LCS 1","OBJECT_ID":"1965-034C","EPOCH":"2026-04-25T20:45:53.933184","MEAN_MOTION":9.89310187,"ECCENTRICITY":0.00132185,"INCLINATION":32.144,"RA_OF_ASC_NODE":301.2607,"ARG_OF_PERICENTER":295.9086,"MEAN_ANOMALY":64.0049,"EPHEMERIS_TYPE":0,"CLASSIFICATION_TYPE":"U","NORAD_CAT_ID":1361,"ELEMENT_SET_NO":999,"REV_AT_EPOCH":20470,"BSTAR":0.0014674212,"MEAN_MOTION_DOT":2.0e-7,"MEAN_MOTION_DDOT":0},{"OBJECT_NAME":"TEMPSAT 1","OBJECT_ID":"1965-065E","EPOCH":"2026-04-25T18:42:22.733856","MEAN_MOTION":13.33591538,"ECCENTRICITY":0.00706631,"INCLINATION":90.0008,"RA_OF_ASC_NODE":212.5832,"ARG_OF_PERICENTER":37.2843,"MEAN_ANOMALY":85.2262,"EPHEMERIS_TYPE":0,"CLASSIFICATION_TYPE":"U","NORAD_CAT_ID":1512,"ELEMENT_SET_NO":999,"REV_AT_EPOCH":95306,"BSTAR":2.5516053e-5,"MEAN_MOTION_DOT":2.2e-7,"MEAN_MOTION_DDOT":0},{"OBJECT_NAME":"CALSPHERE 4A","OBJECT_ID":"1965-065H","EPOCH":"2026-04-25T22:51:06.261984","MEAN_MOTION":13.36268202,"ECCENTRICITY":0.00677229,"INCLINATION":89.8963,"RA_OF_ASC_NODE":123.0087,"ARG_OF_PERICENTER":250.4418,"MEAN_ANOMALY":137.5503,"EPHEMERIS_TYPE":0,"CLASSIFICATION_TYPE":"U","NORAD_CAT_ID":1520,"ELEMENT_SET_NO":999,"REV_AT_EPOCH":95573,"BSTAR":0.00021016623,"MEAN_MOTION_DOT":1.18e-6,"MEAN_MOTION_DDOT":0},{"OBJECT_NAME":"OPS 5712 (P/L 160)","OBJECT_ID":"1967-053A","EPOCH":"2026-04-25T21:55:04.476000","MEAN_MOTION":14.76993663,"ECCENTRICITY":0.00020874,"INCLINATION":69.9165,"RA_OF_ASC_NODE":166.3444,"ARG_OF_PERICENTER":241.5846,"MEAN_ANOMALY":118.5092,"EPHEMERIS_TYPE":0,"CLASSIFICATION_TYPE":"U","NORAD_CAT_ID":2826,"ELEMENT_SET_NO":999,"REV_AT_EPOCH":5851,"BSTAR":0.0010467261,"MEAN_MOTION_DOT":7.318e-5,"MEAN_MOTION_DDOT":0},{"OBJECT_NAME":"OPS 5712 (P/L 153)","OBJECT_ID":"1967-053H","EPOCH":"2026-04-25T16:55:30.073152","MEAN_MOTION":13.96820443,"ECCENTRICITY":0.00100597,"INCLINATION":69.9744,"RA_OF_ASC_NODE":227.794,"ARG_OF_PERICENTER":265.2106,"MEAN_ANOMALY":94.7852,"EPHEMERIS_TYPE":0,"CLASSIFICATION_TYPE":"U","NORAD_CAT_ID":2874,"ELEMENT_SET_NO":999,"REV_AT_EPOCH":99945,"BSTAR":3.706335e-5,"MEAN_MOTION_DOT":-2.0e-8,"MEAN_MOTION_DDOT":0},{"OBJECT_NAME":"RIGIDSPHERE 2 (LCS 4)","OBJECT_ID":"1971-067E","EPOCH":"2026-04-25T20:35:07.756224","MEAN_MOTION":14.37809074,"ECCENTRICITY":0.00617767,"INCLINATION":87.6252,"RA_OF_ASC_NODE":353.3426,"ARG_OF_PERICENTER":47.9173,"MEAN_ANOMALY":312.7256,"EPHEMERIS_TYPE":0,"CLASSIFICATION_TYPE":"U","NORAD_CAT_ID":5398,"ELEMENT_SET_NO":999,"REV_AT_EPOCH":86636,"BSTAR":0.00021136092,"MEAN_MOTION_DOT":6.69e-6,"MEAN_MOTION_DDOT":0},{"OBJECT_NAME":"COSMOS 2493 (SKRL-756 1)","OBJECT_ID":"2013-078A","EPOCH":"2026-04-25T22:08:27.552768","MEAN_MOTION":15.01873845,"ECCENTRICITY":0.00143968,"INCLINATION":82.4111,"RA_OF_ASC_NODE":312.3167,"ARG_OF_PERICENTER":64.3537,"MEAN_ANOMALY":295.9173,"EPHEMERIS_TYPE":0,"CLASSIFICATION_TYPE":"U","NORAD_CAT_ID":39490,"ELEMENT_SET_NO":999,"REV_AT_EPOCH":67011,"BSTAR":0.00021477346,"MEAN_MOTION_DOT":2.836e-5,"MEAN_MOTION_DDOT":0},{"OBJECT_NAME":"COSMOS 2494 (SKRL-756 2)","OBJECT_ID":"2013-078B","EPOCH":"2026-04-25T22:43:56.632800","MEAN_MOTION":15.04542596,"ECCENTRICITY":0.00165695,"INCLINATION":82.4104,"RA_OF_ASC_NODE":301.8972,"ARG_OF_PERICENTER":26.8513,"MEAN_ANOMALY":333.3567,"EPHEMERIS_TYPE":0,"CLASSIFICATION_TYPE":"U","NORAD_CAT_ID":39491,"ELEMENT_SET_NO":999,"REV_AT_EPOCH":67095,"BSTAR":0.00023979134,"MEAN_MOTION_DOT":3.397e-5,"MEAN_MOTION_DDOT":0}]
